[{"OBJECT_NAME":"STARLINK-1669","OBJECT_ID":"2021-012E","EPOCH":"2026-03-09T22:00:01.999584","MEAN_MOTION":15.7520865,"ECCENTRICITY":0.00087944,"INCLINATION":53.0368,"RA_OF_ASC_NODE":350.7855,"ARG_OF_PERICENTER":92.6287,"MEAN_ANOMALY":29.9444,"EPHEMERIS_TYPE":0,"CLASSIFICATION_TYPE":"U","NORAD_CAT_ID":47624,"ELEMENT_SET_NO":999,"REV_AT_EPOCH":578,"BSTAR":0.0017201852,"MEAN_MOTION_DOT":0.00271838,"MEAN_MOTION_DDOT":0},{"OBJECT_NAME":"STARLINK-36560","OBJECT_ID":"2026-016AA","EPOCH":"2026-03-09T17:17:18.709152","MEAN_MOTION":15.75332916,"ECCENTRICITY":0.0001626,"INCLINATION":97.2852,"RA_OF_ASC_NODE":129.2951,"ARG_OF_PERICENTER":20.7059,"MEAN_ANOMALY":339.4272,"EPHEMERIS_TYPE":0,"CLASSIFICATION_TYPE":"U","NORAD_CAT_ID":67585,"ELEMENT_SET_NO":999,"REV_AT_EPOCH":681,"BSTAR":0.0020012995,"MEAN_MOTION_DOT":0.00311443,"MEAN_MOTION_DDOT":0}]
